[{"OBJECT_NAME":"STARLINK-5809","OBJECT_ID":"2023-028AL","EPOCH":"2026-03-09T21:10:16.131360","MEAN_MOTION":14.98325152,"ECCENTRICITY":0.00030301,"INCLINATION":70,"RA_OF_ASC_NODE":223.8992,"ARG_OF_PERICENTER":264.6746,"MEAN_ANOMALY":95.4068,"EPHEMERIS_TYPE":0,"CLASSIFICATION_TYPE":"U","NORAD_CAT_ID":55775,"ELEMENT_SET_NO":999,"REV_AT_EPOCH":16656,"BSTAR":5.2632042e-5,"MEAN_MOTION_DOT":5.35e-6,"MEAN_MOTION_DDOT":0},{"OBJECT_NAME":"COSMOS 2251 DEB","OBJECT_ID":"1993-036AWS","EPOCH":"2026-03-08T21:06:04.726368","MEAN_MOTION":14.95261151,"ECCENTRICITY":0.00284276,"INCLINATION":73.9951,"RA_OF_ASC_NODE":273.3001,"ARG_OF_PERICENTER":6.025,"MEAN_ANOMALY":354.1269,"EPHEMERIS_TYPE":0,"CLASSIFICATION_TYPE":"U","NORAD_CAT_ID":36000,"ELEMENT_SET_NO":999,"REV_AT_EPOCH":61455,"BSTAR":0.0026863031,"MEAN_MOTION_DOT":0.00029903,"MEAN_MOTION_DDOT":0}]
